NORAD_CAT_ID,OBJECT_NAME,OBJECT_TYPE,EPOCH,MEAN_MOTION,ECCENTRICITY,INCLINATION,RA_OF_ASC_NODE,ARG_OF_PERICENTER,MEAN_ANOMALY,BSTAR,MEAN_MOTION_DOT,MEAN_MOTION_DDOT,TLE_LINE0,TLE_LINE1,TLE_LINE2,SEMIMAJOR_AXIS,PERIOD,APOGEE,PERIGEE,DECAYED
55317.0,STARLINK-5265,PAYLOAD,2023-05-21 00:03:46,15.69899196,0.0003162,69.9985,87.3853,243.3843,116.7029,-2.4072e-05,-3.103e-05,0.0,0 STARLINK-5265,1 55317U 23010BA  23141.00262178 -.00003103  00000-0 -24072-4 0  9992,2 55317  69.9985  87.3853 0003162 243.3843 116.7029 15.69899196 19573,6737.322,91.726,361.318,357.057,0.0
55317.0,STARLINK-5265,PAYLOAD,2023-05-21 06:10:47,15.69895726,0.0003379,69.9989,86.669,266.6314,93.4495,-2.4728e-05,-3.181e-05,0.0,0 STARLINK-5265,1 55317U 23010BA  23141.25749549 -.00003181  00000-0 -24728-4 0  9995,2 55317  69.9989  86.6690 0003379 266.6314  93.4495 15.69895726 20800,6737.332,91.726,361.474,356.921,0.0
55317.0,STARLINK-5265,PAYLOAD,2023-05-21 23:00:01,15.6993384,0.0002814,70.0002,84.6985,233.7973,126.2963,1.6652e-05,1.791e-05,0.0,0 STARLINK-5265,1 55317U 23010BA  23141.95835060  .00001791  00000-0  16652-4 0  9996,2 55317  70.0002  84.6985 0002814 233.7973 126.2963 15.69933840 19727,6737.223,91.724,360.984,357.192,0.0
55317.0,STARLINK-5265,PAYLOAD,2023-05-22 06:38:47,15.69934718,0.0002595,70.0002,83.802,240.0536,120.0403,1.8823e-05,2.052e-05,0.0,0 STARLINK-5265,1 55317U 23010BA  23142.27693399  .00002052  00000-0  18823-4 0  9992,2 55317  70.0002  83.8020 0002595 240.0536 120.0403 15.69934718 20964,6737.221,91.724,360.834,357.337,0.0
55317.0,STARLINK-5265,PAYLOAD,2023-05-22 23:28:02,15.69966369,0.0002546,69.9999,81.8305,275.5597,84.5308,-5.4114e-05,-6.724e-05,0.0,0 STARLINK-5265,1 55317U 23010BA  23142.97780833 -.00006724  00000-0 -54114-4 0  9994,2 55317  69.9999  81.8305 0002546 275.5597  84.5308 15.69966369 19880,6737.13,91.722,360.71,357.28,0.0
55317.0,STARLINK-5265,PAYLOAD,2023-05-23 05:35:04,15.69917979,0.0002743,69.9996,81.1125,275.943,84.1453,-9.196e-06,-1.317e-05,0.0,0 STARLINK-5265,1 55317U 23010BA  23143.23269564 -.00001317  00000-0 -91960-5 0  9991,2 55317  69.9996  81.1125 0002743 275.9430  84.1453 15.69917979 19924,6737.269,91.725,360.982,357.286,0.0
55317.0,STARLINK-5265,PAYLOAD,2023-05-24 06:03:06,15.69938706,0.0003348,69.9988,78.2505,258.9641,101.1178,-9.1603e-06,-1.315e-05,0.0,0 STARLINK-5265,1 55317U 23010BA  23144.25215341 -.00001315  00000-0 -91603-5 0  9990,2 55317  69.9988  78.2505 0003348 258.9641 101.1178 15.69938706 20085,6737.209,91.723,361.33,356.819,0.0
55317.0,STARLINK-5265,PAYLOAD,2023-05-25 21:48:40,15.69918162,0.0003436,69.9976,73.5901,258.4019,101.6791,3.7775e-06,2.41e-06,0.0,0 STARLINK-5265,1 55317U 23010BA  23145.90879993  .00000241  00000-0  37775-5 0  9997,2 55317  69.9976  73.5901 0003436 258.4019 101.6791 15.69918162 21533,6737.268,91.725,361.448,356.818,0.0
55317.0,STARLINK-5265,PAYLOAD,2023-05-26 03:55:39,15.69931089,0.0003683,69.9973,72.875,263.5257,96.5519,1.0634e-05,1.066e-05,0.0,0 STARLINK-5265,1 55317U 23010BA  23146.16365704  .00001066  00000-0  10634-4 0  9996,2 55317  69.9973  72.8750 0003683 263.5257  96.5519 15.69931089 20384,6737.231,91.724,361.577,356.615,0.0
55317.0,STARLINK-5265,PAYLOAD,2023-05-26 05:27:24,15.69932736,0.0003704,69.9972,72.6947,260.516,99.5617,1.2773e-05,1.324e-05,0.0,0 STARLINK-5265,1 55317U 23010BA  23146.22737199  .00001324  00000-0  12773-4 0  9997,2 55317  69.9972  72.6947 0003704 260.5160  99.5617 15.69932736 21588,6737.226,91.724,361.587,356.596,0.0
55317.0,STARLINK-5265,PAYLOAD,2023-05-26 22:16:41,15.69924491,0.0003701,69.9971,70.7235,250.1128,109.9669,6.0793e-06,5.18e-06,0.0,0 STARLINK-5265,1 55317U 23010BA  23146.92826147  .00000518  00000-0  60793-5 0  9996,2 55317  69.9971  70.7235 0003701 250.1128 109.9669 15.69924491 21696,6737.25,91.724,361.608,356.622,0.0
55317.0,STARLINK-5265,PAYLOAD,2023-05-27 04:23:42,15.69925566,0.0003294,69.9984,70.008,253.5323,106.551,1.6006e-06,-2e-07,0.0,0 STARLINK-5265,1 55317U 23010BA  23147.18312929 -.00000020  00000-0  16006-5 0  9990,2 55317  69.9984  70.0080 0003294 253.5323 106.5510 15.69925566 20547,6737.247,91.724,361.331,356.893,0.0
55317.0,STARLINK-5265,PAYLOAD,2023-05-27 21:12:58,15.69927361,0.0003596,69.9986,68.0374,265.2087,94.8698,1.287e-05,1.335e-05,0.0,0 STARLINK-5265,1 55317U 23010BA  23147.88401017  .00001335  00000-0  12870-4 0  9997,2 55317  69.9986  68.0374 0003596 265.2087  94.8698 15.69927361 21849,6737.242,91.724,361.53,356.684,0.0
55317.0,STARLINK-5265,PAYLOAD,2023-05-28 04:51:44,15.69922992,0.0003634,69.9985,67.1413,265.3775,94.7006,7.5372e-06,6.93e-06,0.0,0 STARLINK-5265,1 55317U 23010BA  23148.20259706  .00000693  00000-0  75372-5 0  9993,2 55317  69.9985  67.1413 0003634 265.3775  94.7006 15.69922992 20701,6737.254,91.724,361.568,356.671,0.0
55317.0,STARLINK-5265,PAYLOAD,2023-05-28 21:41:00,15.69922742,0.0003603,69.9985,65.1716,268.1029,91.9754,1.1363e-05,1.154e-05,0.0,0 STARLINK-5265,1 55317U 23010BA  23148.90347986  .00001154  00000-0  11363-4 0  9990,2 55317  69.9985  65.1716 0003603 268.1029  91.9754 15.69922742 22001,6737.255,91.724,361.547,356.693,0.0
55317.0,STARLINK-5265,PAYLOAD,2023-05-29 03:48:01,15.69922887,0.000365,69.999,64.4557,268.6227,91.4551,1.0504e-05,1.05e-05,0.0,0 STARLINK-5265,1 55317U 23010BA  23149.15834737  .00001050  00000-0  10504-4 0  9994,2 55317  69.9990  64.4557 0003650 268.6227  91.4551 15.69922887 22043,6737.255,91.724,361.579,356.661,0.0
55317.0,STARLINK-5265,PAYLOAD,2023-05-29 17:33:47,15.69918997,0.0003539,69.9973,62.8419,267.261,92.8181,-2.5734e-06,-5.22e-06,0.0,0 STARLINK-5265,1 55317U 23010BA  23149.73180343 -.00000522  00000-0 -25734-5 0  9992,2 55317  69.9973  62.8419 0003539 267.2610  92.8181 15.69918997 20948,6737.266,91.724,361.515,356.746,0.0
55317.0,STARLINK-5265,PAYLOAD,2023-05-29 20:37:17,15.69921578,0.0003467,69.9977,62.4834,267.7887,92.2912,2.3677e-07,-1.84e-06,0.0,0 STARLINK-5265,1 55317U 23010BA  23149.85923400 -.00000184  00000-0  23677-6 0  9992,2 55317  69.9977  62.4834 0003467 267.7887  92.2912 15.69921578 22150,6737.258,91.724,361.459,356.788,0.0
55317.0,STARLINK-5265,PAYLOAD,2023-05-30 04:16:04,15.69912318,0.0003372,69.9987,61.5882,273.0646,87.0164,-5.4272e-06,-8.65e-06,0.0,0 STARLINK-5265,1 55317U 23010BA  23150.17782483 -.00000865  00000-0 -54272-5 0  9994,2 55317  69.9987  61.5882 0003372 273.0646  87.0164 15.69912318 22201,6737.285,91.725,361.422,356.878,0.0
55317.0,STARLINK-5265,PAYLOAD,2023-05-30 21:05:19,15.69923546,0.0003746,69.9979,59.6164,271.2056,88.8711,4.6096e-06,3.41e-06,0.0,0 STARLINK-5265,1 55317U 23010BA  23150.87869977  .00000341  00000-0  46096-5 0  9997,2 55317  69.9979  59.6164 0003746 271.2056  88.8711 15.69923546 22317,6737.253,91.724,361.642,356.594,0.0
55317.0,STARLINK-5265,PAYLOAD,2023-05-31 01:40:34,15.69929596,0.0003564,69.9975,59.0789,264.7215,95.3574,1.1321e-05,1.149e-05,0.0,0 STARLINK-5265,1 55317U 23010BA  23151.06984443  .00001149  00000-0  11321-4 0  9994,2 55317  69.9975  59.0789 0003564 264.7215  95.3574 15.69929596 21154,6737.235,91.724,361.502,356.699,0.0
55317.0,STARLINK-5265,PAYLOAD,2023-05-31 03:12:19,15.69928849,0.0003615,69.9973,58.8996,264.5177,95.5606,1.085e-05,1.092e-05,0.0,0 STARLINK-5265,1 55317U 23010BA  23151.13356176  .00001092  00000-0  10850-4 0  9991,2 55317  69.9973  58.8996 0003615 264.5177  95.5606 15.69928849 22352,6737.238,91.724,361.538,356.667,0.0
55317.0,STARLINK-5265,PAYLOAD,2023-05-31 18:29:51,15.69919766,0.0003315,69.9976,57.1072,257.7155,102.3669,-1.3414e-06,-3.74e-06,0.0,0 STARLINK-5265,1 55317U 23010BA  23151.77073846 -.00000374  00000-0 -13414-5 0  9995,2 55317  69.9976  57.1072 0003315 257.7155 102.3669 15.69919766 21262,6737.264,91.724,361.362,356.895,0.0
55317.0,STARLINK-5265,PAYLOAD,2023-05-31 21:33:22,15.69918721,0.0003359,69.9975,56.749,258.5607,101.5211,-2.7314e-06,-5.41e-06,0.0,0 STARLINK-5265,1 55317U 23010BA  23151.89817290 -.00000541  00000-0 -27314-5 0  9997,2 55317  69.9975  56.7490 0003359 258.5607 101.5211 15.69918721 22477,6737.267,91.724,361.395,356.868,0.0
55317.0,STARLINK-5265,PAYLOAD,2023-06-01 03:40:22,15.69925862,0.0003204,69.9982,56.0328,260.3796,99.7038,5.7565e-06,4.8e-06,0.0,0 STARLINK-5265,1 55317U 23010BA  23152.15303430  .00000480  00000-0  57565-5 0  9994,2 55317  69.9982  56.0328 0003204 260.3796  99.7038 15.69925862 22511,6737.246,91.724,361.27,356.952,0.0
55317.0,STARLINK-5265,PAYLOAD,2023-06-02 04:08:24,15.69924912,0.0003148,69.9984,53.1684,305.8053,54.2849,1.286e-06,-5.8e-07,0.0,0 STARLINK-5265,1 55317U 23010BA  23153.17250885 -.00000058  00000-0  12860-5 0  9993,2 55317  69.9984  53.1684 0003148 305.8053  54.2849 15.69924912 21480,6737.249,91.724,361.235,356.993,0.0
55317.0,STARLINK-5265,PAYLOAD,2023-06-02 20:57:41,15.69919421,0.0003307,69.9985,51.1957,272.1669,87.9148,1.4535e-05,1.535e-05,0.0,0 STARLINK-5265,1 55317U 23010BA  23153.87339162  .00001535  00000-0  14535-4 0  9996,2 55317  69.9985  51.1957 0003307 272.1669  87.9148 15.69919421 22786,6737.265,91.724,361.358,356.902,0.0
55317.0,STARLINK-5265,PAYLOAD,2023-06-03 03:04:41,15.69922806,0.0003531,69.9989,50.4813,269.8434,90.2357,2.3307e-05,2.59e-05,0.0,0 STARLINK-5265,1 55317U 23010BA  23154.12825455  .00002590  00000-0  23307-4 0  9999,2 55317  69.9989  50.4813 0003531 269.8434  90.2357 15.69922806 22820,6737.255,91.724,361.499,356.741,0.0
55317.0,STARLINK-5265,PAYLOAD,2023-06-03 18:22:12,15.69910799,0.0003425,69.998,48.6896,266.4416,93.6388,2.4865e-05,2.776e-05,0.0,0 STARLINK-5265,1 55317U 23010BA  23154.76542356  .00002776  00000-0  24865-4 0  9991,2 55317  69.9980  48.6896 0003425 266.4416  93.6388 15.69910799 21734,6737.289,91.725,361.462,356.847,0.0
55317.0,STARLINK-5265,PAYLOAD,2023-06-03 19:53:57,15.69915859,0.0003257,69.9982,48.5107,272.4226,87.6597,1.8081e-05,1.961e-05,0.0,0 STARLINK-5265,1 55317U 23010BA  23154.82914082  .00001961  00000-0  18081-4 0  9995,2 55317  69.9982  48.5107 0003257 272.4226  87.6597 15.69915859 22939,6737.275,91.725,361.334,356.945,0.0
